NORAD_CAT_ID,OBJECT_NAME,OBJECT_TYPE,EPOCH,MEAN_MOTION,ECCENTRICITY,INCLINATION,RA_OF_ASC_NODE,ARG_OF_PERICENTER,MEAN_ANOMALY,BSTAR,MEAN_MOTION_DOT,MEAN_MOTION_DDOT,TLE_LINE0,TLE_LINE1,TLE_LINE2,SEMIMAJOR_AXIS,PERIOD,APOGEE,PERIGEE,DECAYED
52865.0,STARLINK-4274,PAYLOAD,2023-02-07 09:00:34,15.0884234,0.0001223,53.2149,40.3481,99.1212,260.9919,7.1339e-05,8.48e-06,0.0,0 STARLINK-4274,1 52865U 22062AM  23038.37539934  .00000848  00000-0  71339-4 0  9994,2 52865  53.2149  40.3481 0001223  99.1212 260.9919 15.08842340 35890,6917.873,95.437,540.584,538.892,0.0
52865.0,STARLINK-4274,PAYLOAD,2023-02-08 07:15:58,15.0884406,0.0001716,53.2152,36.1898,68.7658,291.3517,-1.5398e-05,-5.33e-06,0.0,0 STARLINK-4274,1 52865U 22062AM  23039.30276046 -.00000533  00000-0 -15398-4 0  9996,2 52865  53.2152  36.1898 0001716  68.7658 291.3517 15.08844060 36526,6917.868,95.437,540.92,538.546,0.0
52865.0,STARLINK-4274,PAYLOAD,2023-02-08 12:02:07,15.08848572,0.0001624,53.2151,35.2942,92.094,268.0239,0.00027238,4.051e-05,0.0,0 STARLINK-4274,1 52865U 22062AM  23039.50147759  .00004051  00000-0  27238-3 0  9998,2 52865  53.2151  35.2942 0001624  92.0940 268.0239 15.08848572 36060,6917.854,95.437,540.843,538.596,0.0
52865.0,STARLINK-4274,PAYLOAD,2023-02-09 07:06:46,15.0884947,0.0001497,53.2149,31.7248,97.5891,262.5271,0.0011433,0.00017959,0.0,0 STARLINK-4274,1 52865U 22062AM  23040.29636959  .00017959  00000-0  11433-2 0  9991,2 52865  53.2149  31.7248 0001497  97.5891 262.5271 15.08849470 36670,6917.851,95.437,540.752,538.681,0.0
52865.0,STARLINK-4274,PAYLOAD,2023-02-09 19:49:51,15.08835652,0.0001686,53.2145,29.3479,97.4788,262.6396,0.00026114,3.87e-05,0.0,0 STARLINK-4274,1 52865U 22062AM  23040.82629431  .00003870  00000-0  26114-3 0  9997,2 52865  53.2145  29.3479 0001686  97.4788 262.6396 15.08835652 36754,6917.894,95.438,540.925,538.592,0.0
52865.0,STARLINK-4274,PAYLOAD,2023-02-10 02:11:24,15.08844496,0.0001565,53.2154,28.1562,113.3894,246.7263,0.00038839,5.899e-05,0.0,0 STARLINK-4274,1 52865U 22062AM  23041.09125154  .00005899  00000-0  38839-3 0  9990,2 52865  53.2154  28.1562 0001565 113.3894 246.7263 15.08844496 36309,6917.867,95.437,540.814,538.649,0.0
52865.0,STARLINK-4274,PAYLOAD,2023-02-10 05:22:10,15.08850931,0.000161,53.2155,27.561,116.4907,243.625,0.00053373,8.219e-05,0.0,0 STARLINK-4274,1 52865U 22062AM  23041.22373034  .00008219  00000-0  53373-3 0  9996,2 52865  53.2155  27.5610 0001610 116.4907 243.6250 15.08850931 36816,6917.847,95.437,540.826,538.598,0.0
52865.0,STARLINK-4274,PAYLOAD,2023-02-10 18:05:15,15.08847389,0.0001547,53.2153,25.1835,115.1814,244.9338,0.00050672,7.787e-05,0.0,0 STARLINK-4274,1 52865U 22062AM  23041.75365038  .00007787  00000-0  50672-3 0  9997,2 52865  53.2153  25.1835 0001547 115.1814 244.9338 15.08847389 36891,6917.858,95.437,540.793,538.653,0.0
52865.0,STARLINK-4274,PAYLOAD,2023-02-10 19:40:38,15.08846772,0.0001395,53.2156,24.8866,107.2999,252.8146,0.00040283,6.13e-05,0.0,0 STARLINK-4274,1 52865U 22062AM  23041.81989029  .00006130  00000-0  40283-3 0  9994,2 52865  53.2156  24.8866 0001395 107.2999 252.8146 15.08846772 36419,6917.86,95.437,540.69,538.76,0.0
52865.0,STARLINK-4274,PAYLOAD,2023-02-11 05:12:57,15.08849401,0.000144,53.2159,23.1007,121.5739,238.5394,0.00026975,4.009e-05,0.0,0 STARLINK-4274,1 52865U 22062AM  23042.21732672  .00004009  00000-0  26975-3 0  9994,2 52865  53.2159  23.1007 0001440 121.5739 238.5394 15.08849401 36477,6917.852,95.437,540.713,538.72,0.0
52865.0,STARLINK-4274,PAYLOAD,2023-02-11 19:31:25,15.08842919,0.0001511,53.2152,20.4253,111.9497,248.1656,0.00013176,1.81e-05,0.0,0 STARLINK-4274,1 52865U 22062AM  23042.81348932  .00001810  00000-0  13176-3 0  9998,2 52865  53.2152  20.4253 0001511 111.9497 248.1656 15.08842919 36561,6917.871,95.437,540.782,538.691,0.0
52865.0,STARLINK-4274,PAYLOAD,2023-02-11 21:06:48,15.08840613,0.0001442,53.2152,20.1273,113.9133,246.201,7.1602e-05,8.52e-06,0.0,0 STARLINK-4274,1 52865U 22062AM  23042.87973027  .00000852  00000-0  71602-4 0  9997,2 52865  53.2152  20.1273 0001442 113.9133 246.2010 15.08840613 37060,6917.879,95.438,540.741,538.746,0.0
52865.0,STARLINK-4274,PAYLOAD,2023-02-12 05:03:44,15.08832417,0.0001346,53.2158,18.641,109.7862,250.3275,-3.8502e-05,-9e-06,0.0,0 STARLINK-4274,1 52865U 22062AM  23043.21093516 -.00000900  00000-0 -38502-4 0  9990,2 52865  53.2158  18.6410 0001346 109.7862 250.3275 15.08832417 37114,6917.904,95.438,540.7,538.837,0.0
52865.0,STARLINK-4274,PAYLOAD,2023-02-12 08:14:30,15.08836458,0.0001358,53.2164,18.0446,123.5783,236.5339,-8.8222e-06,-4.28e-06,0.0,0 STARLINK-4274,1 52865U 22062AM  23043.34341224 -.00000428  00000-0 -88222-5 0  9996,2 52865  53.2164  18.0446 0001358 123.5783 236.5339 15.08836458 36646,6917.891,95.438,540.696,538.817,0.0
52865.0,STARLINK-4274,PAYLOAD,2023-02-13 04:54:31,15.08854583,0.0001229,53.2158,14.1811,105.0258,255.087,0.00056826,8.771e-05,0.0,0 STARLINK-4274,1 52865U 22062AM  23044.20452913  .00008771  00000-0  56826-3 0  9990,2 52865  53.2158  14.1811 0001229 105.0258 255.0870 15.08854583 37265,6917.836,95.437,540.551,538.851,0.0
52865.0,STARLINK-4274,PAYLOAD,2023-02-13 14:26:50,15.08850729,9.21e-05,53.2171,12.3969,94.1205,265.9893,0.00068074,0.00010566,0.0,0 STARLINK-4274,1 52865U 22062AM  23044.60197086  .00010566  00000-0  68074-3 0  9994,2 52865  53.2171  12.3969 0000921  94.1205 265.9893 15.08850729 37322,6917.848,95.437,540.35,539.075,0.0
52865.0,STARLINK-4274,PAYLOAD,2023-02-13 23:59:09,15.08841714,0.0001074,53.2155,10.6129,103.7689,256.3422,0.0016581,0.000262,0.0,0 STARLINK-4274,1 52865U 22062AM  23044.99941610  .00026200  00000-0  16581-2 0  9993,2 52865  53.2155  10.6129 0001074 103.7689 256.3422 15.08841714 37388,6917.875,95.437,540.483,538.997,0.0
52865.0,STARLINK-4274,PAYLOAD,2023-02-14 14:17:37,15.08851074,0.0001283,53.2164,7.9347,68.8448,291.2681,0.0015118,0.00023861,0.0,0 STARLINK-4274,1 52865U 22062AM  23045.59557753  .00023861  00000-0  15118-2 0  9996,2 52865  53.2164   7.9347 0001283  68.8448 291.2681 15.08851074 36985,6917.847,95.437,540.599,538.824,0.0
52865.0,STARLINK-4274,PAYLOAD,2023-02-14 20:39:10,15.08839066,0.0001002,53.215,6.7472,79.379,280.7315,0.00080791,0.00012593,0.0,0 STARLINK-4274,1 52865U 22062AM  23045.86053936  .00012593  00000-0  80791-3 0  9990,2 52865  53.2150   6.7472 0001002  79.3790 280.7315 15.08839066 37516,6917.883,95.438,540.441,539.055,0.0
52865.0,STARLINK-4274,PAYLOAD,2023-02-15 04:36:06,15.08859861,9.98e-05,53.2149,5.2603,77.042,283.0683,0.0026778,0.0004261,0.0,0 STARLINK-4274,1 52865U 22062AM  23046.19173952  .00042610  00000-0  26778-2 0  9995,2 52865  53.2149   5.2603 0000998  77.0420 283.0683 15.08859861 37566,6917.82,95.436,540.375,538.994,0.0
52865.0,STARLINK-4274,PAYLOAD,2023-02-15 14:08:25,15.08870863,9.97e-05,53.2149,3.4756,91.0211,269.0896,0.0028701,0.00045725,0.0,0 STARLINK-4274,1 52865U 22062AM  23046.58917993  .00045725  00000-0  28701-2 0  9997,2 52865  53.2149   3.4756 0000997  91.0211 269.0896 15.08870863 37620,6917.786,95.436,540.341,538.961,0.0
52865.0,STARLINK-4274,PAYLOAD,2023-02-15 22:05:20,15.08843073,8.08e-05,53.2128,1.9924,103.8446,256.2636,0.0020599,0.0003265,0.0,0 STARLINK-4274,1 52865U 22062AM  23046.92038077  .00032650  00000-0  20599-2 0  9992,2 52865  53.2128   1.9924 0000808 103.8446 256.2636 15.08843073 37678,6917.871,95.437,540.295,539.177,0.0
52865.0,STARLINK-4274,PAYLOAD,2023-02-16 04:26:52,15.08889617,0.0001075,53.2153,0.7993,99.7701,260.3413,0.0035165,0.000562,0.0,0 STARLINK-4274,1 52865U 22062AM  23047.18533345  .00056200  00000-0  35165-2 0  9991,2 52865  53.2153   0.7993 0001075  99.7701 260.3413 15.08889617 37711,6917.729,95.434,540.337,538.85,0.0
52865.0,STARLINK-4274,PAYLOAD,2023-02-16 13:59:11,15.08841715,0.0001349,53.213,359.0154,114.3314,245.7819,0.0021389,0.00033918,0.0,0 STARLINK-4274,1 52865U 22062AM  23047.58277532  .00033918  00000-0  21389-2 0  9992,2 52865  53.2130 359.0154 0001349 114.3314 245.7819 15.08841715 37773,6917.875,95.437,540.673,538.807,0.0
52865.0,STARLINK-4274,PAYLOAD,2023-02-17 07:28:27,15.08840891,0.0001581,53.2153,355.7436,127.668,232.4456,0.0025665,0.00040796,0.0,0 STARLINK-4274,1 52865U 22062AM  23048.31142975  .00040796  00000-0  25665-2 0  9999,2 52865  53.2153 355.7436 0001581 127.6680 232.4456 15.08840891 37881,6917.878,95.437,540.836,538.649,0.0
52865.0,STARLINK-4274,PAYLOAD,2023-02-17 13:50:00,15.08798466,0.0001505,53.2145,354.555,112.9848,247.1303,0.0011006,0.00017252,0.0,0 STARLINK-4274,1 52865U 22062AM  23048.57639880  .00017252  00000-0  11006-2 0  9998,2 52865  53.2145 354.5550 0001505 112.9848 247.1303 15.08798466 37924,6918.007,95.44,540.914,538.831,0.0
52865.0,STARLINK-4274,PAYLOAD,2023-02-18 02:33:06,15.08826252,0.0001509,53.2153,352.1747,123.0106,237.1031,0.001703,0.00026909,0.0,0 STARLINK-4274,1 52865U 22062AM  23049.10632772  .00026909  00000-0  17030-2 0  9993,2 52865  53.2153 352.1747 0001509 123.0106 237.1031 15.08826252 38001,6917.922,95.438,540.831,538.743,0.0
52865.0,STARLINK-4274,PAYLOAD,2023-02-18 13:40:48,15.08847252,0.0001456,53.2153,350.0943,115.882,244.2322,0.0016107,0.00025444,0.0,0 STARLINK-4274,1 52865U 22062AM  23049.57000945  .00025444  00000-0  16107-2 0  9992,2 52865  53.2153 350.0943 0001456 115.8820 244.2322 15.08847252 37586,6917.858,95.437,540.73,538.716,0.0
52865.0,STARLINK-4274,PAYLOAD,2023-02-19 02:23:52,15.08887946,0.0001323,53.2158,347.7166,109.1531,250.9605,0.0019185,0.00030417,0.0,0 STARLINK-4274,1 52865U 22062AM  23050.09991642  .00030417  00000-0  19185-2 0  9999,2 52865  53.2158 347.7166 0001323 109.1531 250.9605 15.08887946 38155,6917.734,95.435,540.514,538.684,0.0
52865.0,STARLINK-4274,PAYLOAD,2023-02-19 23:03:52,15.0887953,0.0001225,53.2164,343.8504,117.6017,242.51,0.001643,0.00025985,0.0,0 STARLINK-4274,1 52865U 22062AM  23050.96102597  .00025985  00000-0  16430-2 0  9992,2 52865  53.2164 343.8504 0001225 117.6017 242.5100 15.08879530 38280,6917.76,95.435,540.472,538.777,0.0
